{
  "type": "FeatureCollection",
  "features": [
    {
      "type": "Feature",
      "properties": {
        "norad_id": 66989,
        "name": "CZ-4B R/B",
        "group": "last-30-days",
        "lat": -2.1670796903250595,
        "lon": 66.99797287302131,
        "alt_km": 296.0305353691738,
        "timestamp": "2025-12-26T08:37:53.293648+00:00",
        "meta_object_name": "CZ-4B R/B",
        "meta_object_id": "2025-289B",
        "meta_epoch": "2025-12-26T04:03:11.554272",
        "meta_mean_motion": 15.70530395,
        "meta_eccentricity": 0.0138648,
        "meta_inclination": 97.5229,
        "meta_ra_of_asc_node": 66.5061,
        "meta_arg_of_pericenter": 311.9288,
        "meta_mean_anomaly": 47.0219,
        "meta_ephemeris_type": 0,
        "meta_classification_type": "U",
        "meta_norad_cat_id": 66989,
        "meta_element_set_no": 999,
        "meta_rev_at_epoch": 267,
        "meta_bstar": 0.00057014,
        "meta_mean_motion_dot": 0.00123733,
        "meta_mean_motion_ddot": 6.7414e-06,
        "tle_line1": "1 66989U 25289B   25360.16888373  .00123733  67414-5  57014-3 0  9990",
        "tle_line2": "2 66989  97.5229  66.5061 0138648 311.9288  47.0219 15.70530395  2676"
      },
      "geometry": {
        "type": "Point",
        "coordinates": [
          66.99797287302131,
          -2.1670796903250595
        ]
      }
    },
    {
      "type": "Feature",
      "properties": {
        "norad_id": 66990,
        "name": "TJS-22",
        "group": "last-30-days",
        "lat": 0.18602227207402383,
        "lon": -68.97069678802242,
        "alt_km": 35772.84708280106,
        "timestamp": "2025-12-26T08:37:53.293660+00:00",
        "meta_object_name": "TJS-22",
        "meta_object_id": "2025-290A",
        "meta_epoch": "2025-12-25T08:20:17.431872",
        "meta_mean_motion": 1.00271568,
        "meta_eccentricity": 0.0003387,
        "meta_inclination": 1.9567,
        "meta_ra_of_asc_node": 285.0409,
        "meta_arg_of_pericenter": 343.2156,
        "meta_mean_anomaly": 17.3747,
        "meta_ephemeris_type": 0,
        "meta_classification_type": "U",
        "meta_norad_cat_id": 66990,
        "meta_element_set_no": 999,
        "meta_rev_at_epoch": 28,
        "meta_bstar": 0,
        "meta_mean_motion_dot": 1.5e-07,
        "meta_mean_motion_ddot": 0,
        "tle_line1": "1 66990U 25290A   25359.34742398  .00000015  00000+0  00000+0 0  9996",
        "tle_line2": "2 66990   1.9567 285.0409 0003387 343.2156  17.3747  1.00271568   282"
      },
      "geometry": {
        "type": "Point",
        "coordinates": [
          -68.97069678802242,
          0.18602227207402383
        ]
      }
    },
    {
      "type": "Feature",
      "properties": {
        "norad_id": 66991,
        "name": "CZ-3B R/B",
        "group": "last-30-days",
        "lat": 24.12453889762859,
        "lon": -8.000708370292585,
        "alt_km": 14781.08940002491,
        "timestamp": "2025-12-26T08:37:53.293675+00:00",
        "meta_object_name": "CZ-3B R/B",
        "meta_object_id": "2025-290B",
        "meta_epoch": "2025-12-15T17:23:33.043200",
        "meta_mean_motion": 2.38388611,
        "meta_eccentricity": 0.7240884,
        "meta_inclination": 28.4636,
        "meta_ra_of_asc_node": 300.4666,
        "meta_arg_of_pericenter": 182.7002,
        "meta_mean_anomaly": 168.625,
        "meta_ephemeris_type": 0,
        "meta_classification_type": "U",
        "meta_norad_cat_id": 66991,
        "meta_element_set_no": 999,
        "meta_rev_at_epoch": 16,
        "meta_bstar": 0.00075879,
        "meta_mean_motion_dot": 0.00057911,
        "meta_mean_motion_ddot": -2.0514e-07,
        "tle_line1": "1 66991U 25290B   25349.72468800  .00057911 -20514-6  75879-3 0  9998",
        "tle_line2": "2 66991  28.4636 300.4666 7240884 182.7002 168.6250  2.38388611   165"
      },
      "geometry": {
        "type": "Point",
        "coordinates": [
          -8.000708370292585,
          24.12453889762859
        ]
      }
    },
    {
      "type": "Feature",
      "properties": {
        "norad_id": 66993,
        "name": "2025-292A",
        "group": "last-30-days",
        "lat": -77.03763347952184,
        "lon": 108.5009415737829,
        "alt_km": 554.5317979905822,
        "timestamp": "2025-12-26T08:37:53.293685+00:00",
        "meta_object_name": "2025-292A",
        "meta_object_id": "2025-292A",
        "meta_epoch": "2025-12-26T02:36:00.232128",
        "meta_mean_motion": 15.0459415,
        "meta_eccentricity": 0.0014697,
        "meta_inclination": 97.6492,
        "meta_ra_of_asc_node": 72.5284,
        "meta_arg_of_pericenter": 224.3532,
        "meta_mean_anomaly": 135.6518,
        "meta_ephemeris_type": 0,
        "meta_classification_type": "U",
        "meta_norad_cat_id": 66993,
        "meta_element_set_no": 999,
        "meta_rev_at_epoch": 240,
        "meta_bstar": 0.0003039,
        "meta_mean_motion_dot": 4.213e-05,
        "meta_mean_motion_ddot": 0,
        "tle_line1": "1 66993U 25292A   25360.10833602  .00004213  00000+0  30390-3 0  9999",
        "tle_line2": "2 66993  97.6492  72.5284 0014697 224.3532 135.6518 15.04594150  2407"
      },
      "geometry": {
        "type": "Point",
        "coordinates": [
          108.5009415737829,
          -77.03763347952184
        ]
      }
    },
    {
      "type": "Feature",
      "properties": {
        "norad_id": 66994,
        "name": "2025-292B",
        "group": "last-30-days",
        "lat": -74.8521316527686,
        "lon": 102.54911399892137,
        "alt_km": 554.7863842603601,
        "timestamp": "2025-12-26T08:37:53.293695+00:00",
        "meta_object_name": "2025-292B",
        "meta_object_id": "2025-292B",
        "meta_epoch": "2025-12-26T02:35:19.114368",
        "meta_mean_motion": 15.04644108,
        "meta_eccentricity": 0.0014484,
        "meta_inclination": 97.6502,
        "meta_ra_of_asc_node": 72.5307,
        "meta_arg_of_pericenter": 224.6876,
        "meta_mean_anomaly": 135.3184,
        "meta_ephemeris_type": 0,
        "meta_classification_type": "U",
        "meta_norad_cat_id": 66994,
        "meta_element_set_no": 999,
        "meta_rev_at_epoch": 240,
        "meta_bstar": 0.00034591,
        "meta_mean_motion_dot": 4.811e-05,
        "meta_mean_motion_ddot": 0,
        "tle_line1": "1 66994U 25292B   25360.10786012  .00004811  00000+0  34591-3 0  9993",
        "tle_line2": "2 66994  97.6502  72.5307 0014484 224.6876 135.3184 15.04644108  2409"
      },
      "geometry": {
        "type": "Point",
        "coordinates": [
          102.54911399892137,
          -74.8521316527686
        ]
      }
    },
    {
      "type": "Feature",
      "properties": {
        "norad_id": 66995,
        "name": "2025-292C",
        "group": "last-30-days",
        "lat": -73.87197560457962,
        "lon": 100.47515939087059,
        "alt_km": 554.720639218739,
        "timestamp": "2025-12-26T08:37:53.293707+00:00",
        "meta_object_name": "2025-292C",
        "meta_object_id": "2025-292C",
        "meta_epoch": "2025-12-25T05:50:07.257120",
        "meta_mean_motion": 15.04668363,
        "meta_eccentricity": 0.0014688,
        "meta_inclination": 97.6495,
        "meta_ra_of_asc_node": 71.6733,
        "meta_arg_of_pericenter": 227.9665,
        "meta_mean_anomaly": 132.0312,
        "meta_ephemeris_type": 0,
        "meta_classification_type": "U",
        "meta_norad_cat_id": 66995,
        "meta_element_set_no": 999,
        "meta_rev_at_epoch": 227,
        "meta_bstar": 0.00041226,
        "meta_mean_motion_dot": 5.751e-05,
        "meta_mean_motion_ddot": 0,
        "tle_line1": "1 66995U 25292C   25359.24313955  .00005751  00000+0  41226-3 0  9996",
        "tle_line2": "2 66995  97.6495  71.6733 0014688 227.9665 132.0312 15.04668363  2273"
      },
      "geometry": {
        "type": "Point",
        "coordinates": [
          100.47515939087059,
          -73.87197560457962
        ]
      }
    },
    {
      "type": "Feature",
      "properties": {
        "norad_id": 66996,
        "name": "2025-292D",
        "group": "last-30-days",
        "lat": -72.11206847095718,
        "lon": 97.38543726310596,
        "alt_km": 554.9180339290269,
        "timestamp": "2025-12-26T08:37:53.293717+00:00",
        "meta_object_name": "2025-292D",
        "meta_object_id": "2025-292D",
        "meta_epoch": "2025-12-25T05:49:36.025248",
        "meta_mean_motion": 15.04678565,
        "meta_eccentricity": 0.0013797,
        "meta_inclination": 97.6491,
        "meta_ra_of_asc_node": 71.6729,
        "meta_arg_of_pericenter": 230.5158,
        "meta_mean_anomaly": 129.4848,
        "meta_ephemeris_type": 0,
        "meta_classification_type": "U",
        "meta_norad_cat_id": 66996,
        "meta_element_set_no": 999,
        "meta_rev_at_epoch": 227,
        "meta_bstar": 0.00027339,
        "meta_mean_motion_dot": 3.792e-05,
        "meta_mean_motion_ddot": 0,
        "tle_line1": "1 66996U 25292D   25359.24277807  .00003792  00000+0  27339-3 0  9994",
        "tle_line2": "2 66996  97.6491  71.6729 0013797 230.5158 129.4848 15.04678565  2271"
      },
      "geometry": {
        "type": "Point",
        "coordinates": [
          97.38543726310596,
          -72.11206847095718
        ]
      }
    }
  ]
}